{
  "norad_id": 40938,
  "name": "BEIDOU-3S IGSO-2S",
  "history": [
    {
      "epoch": "2026-03-23T22:31:30.655200Z",
      "apogee_km": 36047.978601191215,
      "perigee_km": 35520.97962984016,
      "latitude_deg": -2.7555600905213806,
      "longitude_deg": 98.1088808007908,
      "height_km": 36041.00622380233,
      "semi_major_axis_km": 42162.61611551569,
      "eccentricity": 0.0062496,
      "inclination_deg": 49.3558,
      "raan_deg": 259.7919,
      "arg_perigee_deg": 189.3068,
      "mean_anomaly_deg": 166.8287,
      "mean_motion_rev_day": 1.00279333
    }
  ]
}